{
  "norad_id": 56689,
  "name": "STARLINK-30129",
  "history": [
    {
      "epoch": "2026-03-28T07:02:58.468128Z",
      "apogee_km": 560.0652290190546,
      "perigee_km": 558.0853486318238,
      "latitude_deg": 1.2763620079484488e-05,
      "longitude_deg": -117.69285501491693,
      "height_km": 558.8329952223538,
      "semi_major_axis_km": 6937.212288825439,
      "eccentricity": 0.0001427,
      "inclination_deg": 43.0021,
      "raan_deg": 173.767,
      "arg_perigee_deg": 271.258,
      "mean_anomaly_deg": 88.8099,
      "mean_motion_rev_day": 15.02537379
    }
  ]
}